[{"OBJECT_NAME":"IRIDIUM 169","OBJECT_ID":"2019-002E","EPOCH":"2026-03-09T22:14:17.748384","MEAN_MOTION":14.38612437,"ECCENTRICITY":0.00014131,"INCLINATION":86.4172,"RA_OF_ASC_NODE":66.6873,"ARG_OF_PERICENTER":82.9186,"MEAN_ANOMALY":277.2173,"EPHEMERIS_TYPE":0,"CLASSIFICATION_TYPE":"U","NORAD_CAT_ID":43926,"ELEMENT_SET_NO":999,"REV_AT_EPOCH":37595,"BSTAR":6.3248636e-5,"MEAN_MOTION_DOT":2.13e-6,"MEAN_MOTION_DDOT":0},{"OBJECT_NAME":"SL-8 DEB","OBJECT_ID":"1974-071E","EPOCH":"2026-02-26T15:37:28.647264","MEAN_MOTION":14.36950207,"ECCENTRICITY":0.0020833,"INCLINATION":74.053,"RA_OF_ASC_NODE":168.1839,"ARG_OF_PERICENTER":4.4388,"MEAN_ANOMALY":355.6946,"EPHEMERIS_TYPE":0,"CLASSIFICATION_TYPE":"U","NORAD_CAT_ID":38667,"ELEMENT_SET_NO":999,"REV_AT_EPOCH":66217,"BSTAR":7.6134532e-5,"MEAN_MOTION_DOT":2.0e-6,"MEAN_MOTION_DDOT":0}]
